start=new Date('2023-04-11T00:00:00.000Z').valueOf();
sats=[{"PERIAPSIS":"546.526","MEAN_ANOMALY":"256.0681","APOAPSIS":"547.974","BSTAR":"0.00045917000000","MEAN_ELEMENT_THEORY":"SGP4","TIME_SYSTEM":"UTC","MEAN_MOTION_DDOT":"0.0000000000000","CENTER_NAME":"EARTH","TLE_LINE2":"2 48323  53.0527 199.5343 0001045 104.0424 256.0681 15.06388099107615","MEAN_MOTION_DOT":"0.00006562","OBJECT_NAME":"STARLINK-2515","REV_AT_EPOCH":"10761","OBJECT_ID":"2021-036AZ","DECAY_DATE":null,"MEAN_MOTION":"15.06388099","ELEMENT_SET_NO":"999","EPOCH":"2023-04-10T08:53:03.894144","CLASSIFICATION_TYPE":"U","FILE":"3885195","INCLINATION":"53.0527","PERIOD":"95.593","COUNTRY_CODE":"US","ECCENTRICITY":"0.00010450","TLE_LINE1":"1 48323U 21036AZ  23100.37018396  .00006562  00000-0  45917-3 0  9993","ARG_OF_PERICENTER":"104.0424","LAUNCH_DATE":"2021-04-29","EPHEMERIS_TYPE":"0","RA_OF_ASC_NODE":"199.5343","NORAD_CAT_ID":"48323","REF_FRAME":"TEME","GP_ID":"229848131","SEMIMAJOR_AXIS":"6925.385","RCS_SIZE":"LARGE","OBJECT_TYPE":"PAYLOAD","SITE":"AFETR"},{"OBJECT_ID":"2021-036BA","DECAY_DATE":null,"OBJECT_NAME":"STARLINK-2527","REV_AT_EPOCH":"10765","MEAN_MOTION_DOT":"0.00045066","CLASSIFICATION_TYPE":"U","EPOCH":"2023-04-10T16:44:01.497984","MEAN_MOTION":"15.06360470","ELEMENT_SET_NO":"999","MEAN_ELEMENT_THEORY":"SGP4","APOAPSIS":"548.338","BSTAR":"0.00302830000000","MEAN_ANOMALY":"60.7318","PERIAPSIS":"546.331","TLE_LINE2":"2 48324  53.0538 198.0549 0001449 299.3526  60.7318 15.06360470107653","MEAN_MOTION_DDOT":"0.0000000000000","TIME_SYSTEM":"UTC","CENTER_NAME":"EARTH","RA_OF_ASC_NODE":"198.0549","EPHEMERIS_TYPE":"0","LAUNCH_DATE":"2021-04-29","RCS_SIZE":"LARGE","SEMIMAJOR_AXIS":"6925.470","SITE":"AFETR","OBJECT_TYPE":"PAYLOAD","GP_ID":"229878585","NORAD_CAT_ID":"48324","REF_FRAME":"TEME","FILE":"3885363","TLE_LINE1":"1 48324U 21036BA  23100.69723956  .00045066  00000-0  30283-2 0  9995","ECCENTRICITY":"0.00014490","ARG_OF_PERICENTER":"299.3526","COUNTRY_CODE":"US","PERIOD":"95.595","INCLINATION":"53.0538"},{"ELEMENT_SET_NO":"999","MEAN_MOTION":"15.06400234","CLASSIFICATION_TYPE":"U","EPOCH":"2023-04-10T07:06:53.767296","MEAN_MOTION_DOT":"0.00011805","DECAY_DATE":null,"OBJECT_ID":"2021-036BB","REV_AT_EPOCH":"10760","OBJECT_NAME":"STARLINK-2495","MEAN_MOTION_DDOT":"0.0000000000000","CENTER_NAME":"EARTH","TIME_SYSTEM":"UTC","TLE_LINE2":"2 48325  53.0523 199.8657 0000622  72.5532 287.5525 15.06400234107604","BSTAR":"0.00081007000000","APOAPSIS":"547.644","PERIAPSIS":"546.782","MEAN_ANOMALY":"287.5525","MEAN_ELEMENT_THEORY":"SGP4","REF_FRAME":"TEME","NORAD_CAT_ID":"48325","SITE":"AFETR","OBJECT_TYPE":"PAYLOAD","RCS_SIZE":"LARGE","SEMIMAJOR_AXIS":"6925.348","GP_ID":"229847631","LAUNCH_DATE":"2021-04-29","RA_OF_ASC_NODE":"199.8657","EPHEMERIS_TYPE":"0","PERIOD":"95.592","INCLINATION":"53.0523","ARG_OF_PERICENTER":"72.5532","ECCENTRICITY":"0.00006220","TLE_LINE1":"1 48325U 21036BB  23100.29645564  .00011805  00000-0  81007-3 0  9995","COUNTRY_CODE":"US","FILE":"3885195"},{"LAUNCH_DATE":"2021-04-29","RA_OF_ASC_NODE":"198.0978","EPHEMERIS_TYPE":"0","NORAD_CAT_ID":"48326","REF_FRAME":"TEME","GP_ID":"229877591","RCS_SIZE":"LARGE","SEMIMAJOR_AXIS":"6925.413","OBJECT_TYPE":"PAYLOAD","SITE":"AFETR","FILE":"3885363","INCLINATION":"53.0553","PERIOD":"95.593","COUNTRY_CODE":"US","ECCENTRICITY":"0.00017640","TLE_LINE1":"1 48326U 21036BC  23100.69082434  .00026037  00000-0  17614-2 0  9996","ARG_OF_PERICENTER":"323.1424","MEAN_MOTION_DOT":"0.00026037","OBJECT_NAME":"STARLINK-2498","REV_AT_EPOCH":"10766","OBJECT_ID":"2021-036BC","DECAY_DATE":null,"MEAN_MOTION":"15.06378823","ELEMENT_SET_NO":"999","CLASSIFICATION_TYPE":"U","EPOCH":"2023-04-10T16:34:47.222976","MEAN_ANOMALY":"36.9443","PERIAPSIS":"546.057","APOAPSIS":"548.500","BSTAR":"0.00176140000000","MEAN_ELEMENT_THEORY":"SGP4","MEAN_MOTION_DDOT":"0.0000000000000","TIME_SYSTEM":"UTC","CENTER_NAME":"EARTH","TLE_LINE2":"2 48326  53.0553 198.0978 0001764 323.1424  36.9443 15.06378823107667"},{"TLE_LINE1":"1 48327U 21036BD  23100.68716269  .00019765  00000-0  13427-2 0  9994","ECCENTRICITY":"0.00010880","ARG_OF_PERICENTER":"66.7598","COUNTRY_CODE":"US","PERIOD":"95.593","INCLINATION":"53.0557","FILE":"3885363","RCS_SIZE":"LARGE","SEMIMAJOR_AXIS":"6925.403","OBJECT_TYPE":"PAYLOAD","SITE":"AFETR","GP_ID":"229878346","NORAD_CAT_ID":"48327","REF_FRAME":"TEME","EPHEMERIS_TYPE":"0","RA_OF_ASC_NODE":"198.1128","LAUNCH_DATE":"2021-04-29","TLE_LINE2":"2 48327  53.0557 198.1128 0001088  66.7598 293.3506 15.06382299107662","MEAN_MOTION_DDOT":"0.0000000000000","CENTER_NAME":"EARTH","TIME_SYSTEM":"UTC","MEAN_ELEMENT_THEORY":"SGP4","APOAPSIS":"548.021","BSTAR":"0.00134270000000","PERIAPSIS":"546.514","MEAN_ANOMALY":"293.3506","CLASSIFICATION_TYPE":"U","EPOCH":"2023-04-10T16:29:30.856416","MEAN_MOTION":"15.06382299","ELEMENT_SET_NO":"999","OBJECT_ID":"2021-036BD","DECAY_DATE":null,"OBJECT_NAME":"STARLINK-2502","REV_AT_EPOCH":"10766","MEAN_MOTION_DOT":"0.00019765"},{"TLE_LINE2":"2 48328  53.0541 199.9093 0001252 103.4721 256.6407 15.06403854107603","CENTER_NAME":"EARTH","MEAN_MOTION_DDOT":"0.0000000000000","TIME_SYSTEM":"UTC","MEAN_ELEMENT_THEORY":"SGP4","APOAPSIS":"548.069","BSTAR":"0.00036604000000","PERIAPSIS":"546.335","MEAN_ANOMALY":"256.6407","EPOCH":"2023-04-10T06:49:38.303904","CLASSIFICATION_TYPE":"U","MEAN_MOTION":"15.06403854","ELEMENT_SET_NO":"999","OBJECT_ID":"2021-036BE","DECAY_DATE":null,"OBJECT_NAME":"STARLINK-2504","REV_AT_EPOCH":"10760","MEAN_MOTION_DOT":"0.00005175","ECCENTRICITY":"0.00012520","TLE_LINE1":"1 48328U 21036BE  23100.28447111  .00005175  00000-0  36604-3 0  9991","ARG_OF_PERICENTER":"103.4721","COUNTRY_CODE":"US","PERIOD":"95.592","INCLINATION":"53.0541","FILE":"3885195","RCS_SIZE":"LARGE","SEMIMAJOR_AXIS":"6925.337","OBJECT_TYPE":"PAYLOAD","SITE":"AFETR","GP_ID":"229847381","NORAD_CAT_ID":"48328","REF_FRAME":"TEME","RA_OF_ASC_NODE":"199.9093","EPHEMERIS_TYPE":"0","LAUNCH_DATE":"2021-04-29"},{"MEAN_MOTION_DDOT":"0.0000000000000","TIME_SYSTEM":"UTC","CENTER_NAME":"EARTH","TLE_LINE2":"2 48329  53.0529 198.1419 0001388  74.7876 285.3267 15.06400833107667","PERIAPSIS":"546.250","MEAN_ANOMALY":"285.3267","APOAPSIS":"548.172","BSTAR":"0.00229840000000","MEAN_ELEMENT_THEORY":"SGP4","MEAN_MOTION":"15.06400833","ELEMENT_SET_NO":"999","EPOCH":"2023-04-10T16:18:55.050048","CLASSIFICATION_TYPE":"U","MEAN_MOTION_DOT":"0.00034120","OBJECT_NAME":"STARLINK-2510","REV_AT_EPOCH":"10766","DECAY_DATE":null,"OBJECT_ID":"2021-036BF","INCLINATION":"53.0529","PERIOD":"95.592","COUNTRY_CODE":"US","TLE_LINE1":"1 48329U 21036BF  23100.67980382  .00034120  00000-0  22984-2 0  9994","ECCENTRICITY":"0.00013880","ARG_OF_PERICENTER":"74.7876","FILE":"3885363","REF_FRAME":"TEME","NORAD_CAT_ID":"48329","GP_ID":"229877844","SEMIMAJOR_AXIS":"6925.346","RCS_SIZE":"LARGE","SITE":"AFETR","OBJECT_TYPE":"PAYLOAD","LAUNCH_DATE":"2021-04-29","EPHEMERIS_TYPE":"0","RA_OF_ASC_NODE":"198.1419"},{"GP_ID":"229848383","OBJECT_TYPE":"PAYLOAD","SITE":"AFETR","RCS_SIZE":"LARGE","SEMIMAJOR_AXIS":"6925.346","REF_FRAME":"TEME","NORAD_CAT_ID":"48330","RA_OF_ASC_NODE":"199.9498","EPHEMERIS_TYPE":"0","LAUNCH_DATE":"2021-04-29","COUNTRY_CODE":"US","ARG_OF_PERICENTER":"82.6809","TLE_LINE1":"1 48330U 21036BG  23100.27804703  .00007293  00000-0  50799-3 0  9991","ECCENTRICITY":"0.00014130","INCLINATION":"53.0528","PERIOD":"95.592","FILE":"3885195","EPOCH":"2023-04-10T06:40:23.263392","CLASSIFICATION_TYPE":"U","ELEMENT_SET_NO":"999","MEAN_MOTION":"15.06400935","REV_AT_EPOCH":"10760","OBJECT_NAME":"STARLINK-2501","OBJECT_ID":"2021-036BG","DECAY_DATE":null,"MEAN_MOTION_DOT":"0.00007293","TLE_LINE2":"2 48330  53.0528 199.9498 0001413  82.6809 277.4341 15.06400935107609","MEAN_MOTION_DDOT":"0.0000000000000","TIME_SYSTEM":"UTC","CENTER_NAME":"EARTH","MEAN_ELEMENT_THEORY":"SGP4","MEAN_ANOMALY":"277.4341","PERIAPSIS":"546.232","BSTAR":"0.00050799000000","APOAPSIS":"548.189"},{"EPOCH":"2023-04-10T06:35:04.825824","CLASSIFICATION_TYPE":"U","MEAN_MOTION":"15.06409778","ELEMENT_SET_NO":"999","DECAY_DATE":null,"OBJECT_ID":"2021-036BH","OBJECT_NAME":"STARLINK-2514","REV_AT_EPOCH":"10760","MEAN_MOTION_DOT":"0.00018360","TLE_LINE2":"2 48331  53.0513 199.9654 0001950  81.1229 278.9981 15.06409778107604","MEAN_MOTION_DDOT":"0.0000000000000","TIME_SYSTEM":"UTC","CENTER_NAME":"EARTH","MEAN_ELEMENT_THEORY":"SGP4","APOAPSIS":"548.534","BSTAR":"0.00124790000000","MEAN_ANOMALY":"278.9981","PERIAPSIS":"545.833","SEMIMAJOR_AXIS":"6925.319","RCS_SIZE":"LARGE","SITE":"AFETR","OBJECT_TYPE":"PAYLOAD","GP_ID":"229848132","REF_FRAME":"TEME","NORAD_CAT_ID":"48331","RA_OF_ASC_NODE":"199.9654","EPHEMERIS_TYPE":"0","LAUNCH_DATE":"2021-04-29","TLE_LINE1":"1 48331U 21036BH  23100.27436141  .00018360  00000-0  12479-2 0  9998","ECCENTRICITY":"0.00019500","ARG_OF_PERICENTER":"81.1229","COUNTRY_CODE":"US","PERIOD":"95.592","INCLINATION":"53.0513","FILE":"3885195"},{"EPOCH":"2023-04-10T06:33:44.524800","CLASSIFICATION_TYPE":"U","MEAN_MOTION":"15.06358449","ELEMENT_SET_NO":"999","OBJECT_ID":"2021-036BJ","DECAY_DATE":null,"OBJECT_NAME":"STARLINK-2511","REV_AT_EPOCH":"10760","MEAN_MOTION_DOT":"0.00000663","TLE_LINE2":"2 48332  53.0536 199.9692 0002037  95.1636 264.9585 15.06358449107609","MEAN_MOTION_DDOT":"0.0000000000000","TIME_SYSTEM":"UTC","CENTER_NAME":"EARTH","MEAN_ELEMENT_THEORY":"SGP4","APOAPSIS":"548.752","BSTAR":"0.00006350100000","MEAN_ANOMALY":"264.9585","PERIAPSIS":"545.930","SEMIMAJOR_AXIS":"6925.476","RCS_SIZE":"LARGE","OBJECT_TYPE":"PAYLOAD","SITE":"AFETR","GP_ID":"229846882","NORAD_CAT_ID":"48332","REF_FRAME":"TEME","RA_OF_ASC_NODE":"199.9692","EPHEMERIS_TYPE":"0","LAUNCH_DATE":"2021-04-29","ECCENTRICITY":"0.00020370","TLE_LINE1":"1 48332U 21036BJ  23100.27343200  .00000663  00000-0  63501-4 0  9993","ARG_OF_PERICENTER":"95.1636","COUNTRY_CODE":"US","PERIOD":"95.595","INCLINATION":"53.0536","FILE":"3885195"}];
